GPS BIIR-2  (PRN 13)    
1 24876C 97035A   20357.70201389 -.00000000  00000-0  00000-0 0  3577
2 24876  55.4622 176.8066 0046895  58.6224 156.6567  2.00562549    16
GPS BIIR-4  (PRN 20)    
1 26360C 00025A   20357.70201389 -.00000000  00000-0  00000-0 0  3570
2 26360  53.6509 101.3401 0058036 162.6206  33.4711  2.00564303    15
GPS BIIR-5  (PRN 28)    
1 26407C 00040A   20357.70201389  .00000000  00000-0  00000-0 0  3578
2 26407  55.8557 294.7359 0184362 281.6677 235.5816  2.00564577    13
GPS BIIR-8  (PRN 16)    
1 27663C 03005A   20357.70201389  .00000000  00000-0  00000-0 0  3577
2 27663  55.9094 294.5290 0117963  35.4899 246.5257  2.00569872    15
GPS BIIR-9  (PRN 21)    
1 27704C 03010A   20357.70201389 -.00000000  00000-0  00000-0 0  3570
2 27704  54.7500  45.3201 0243059 289.6511 208.4567  2.00555825    18
GPS BIIR-10 (PRN 22)    
1 28129C 03058A   20357.70201389 -.00000000  00000-0  00000-0 0  3574
2 28129  53.4615 104.0196 0069975 298.1887 136.2781  2.00566142    13
GPS BIIR-11 (PRN 19)    
1 28190C 04009A   20357.70201389  .00000000  00000-0  00000-0 0  3578
2 28190  56.2390 355.3629 0087396 101.2531 334.8813  2.00571813    14
GPS BIIR-13 (PRN 02)    
1 28474C 04045A   20357.70201389 -.00000000  00000-0  00000-0 0  3574
2 28474  55.0890  45.2585 0204762 270.0154  81.5334  2.00575152    15
GPS BIIRM-1 (PRN 17)    
1 28874C 05038A   20357.70201389  .00000000  00000-0  00000-0 0  3570
2 28874  56.3316 352.7654 0138481 268.4196 186.8743  2.00582414    12
GPS BIIRM-2 (PRN 31)    
1 29486C 06042A   20357.70201389  .00000000  00000-0  00000-0 0  3576
2 29486  54.8084 230.8588 0098958  11.3387   7.8723  2.00559377    12
GPS BIIRM-3 (PRN 12)    
1 29601C 06052A   20357.70201389  .00000000  00000-0  00000-0 0  3576
2 29601  55.9010 293.4512 0079166  66.1748 352.8952  2.00574331    17
GPS BIIRM-4 (PRN 15)    
1 32260C 07047A   20357.70201389 -.00000000  00000-0  00000-0 0  3577
2 32260  53.2092 162.9913 0129112  54.4636 137.9112  2.00549502    13
GPS BIIRM-5 (PRN 29)    
1 32384C 07062A   20357.70201389  .00000000  00000-0  00000-0 0  3570
2 32384  56.4334 353.4611 0012655 135.0169 188.3822  2.00560435    12
GPS BIIRM-6 (PRN 07)    
1 32711C 08012A   20357.70201389  .00000000  00000-0  00000-0 0  3570
2 32711  54.5581 229.9183 0144390 225.5297  30.0464  2.00570120    16
GPS BIIRM-8 (PRN 05)    
1 35752C 09043A   20357.70201389 -.00000000  00000-0  00000-0 0  3574
2 35752  54.6995 107.4103 0058490  49.7987 232.1086  2.00550393    18
GPS BIIF-1  (PRN 25)    
1 36585C 10022A   20357.70201389  .00000000  00000-0  00000-0 0  3577
2 36585  55.1747 289.3527 0093498  52.3770 334.8487  2.00561707    17
GPS BIIF-2  (PRN 01)    
1 37753C 11036A   20357.70201389 -.00000000  00000-0  00000-0 0  3572
2 37753  56.3023  49.8756 0100142  46.2578  68.9935  2.00562032    16
GPS BIIF-3  (PRN 24)    
1 38833C 12053A   20357.70201389  .00000000  00000-0  00000-0 0  3571
2 38833  53.6039 225.5830 0105721  39.9200  87.7211  2.00569417    18
GPS BIIF-4  (PRN 27)    
1 39166C 13023A   20357.70201389  .00000000  00000-0  00000-0 0  3579
2 39166  55.9843 349.3436 0085950  30.9181 195.2251  2.00564052    12
GPS BIIF-5  (PRN 30)    
1 39533C 14008A   20357.70201389  .00000000  00000-0  00000-0 0  3571
2 39533  53.7133 231.0364 0048051 199.4525  27.8453  2.00552354    15
GPS BIIF-6  (PRN 06)    
1 39741C 14026A   20357.70201389 -.00000000  00000-0  00000-0 0  3573
2 39741  56.2738  49.4028 0023575 292.2465  93.7709  2.00564069    14
GPS BIIF-7  (PRN 09)    
1 40105C 14045A   20357.70201389 -.00000000  00000-0  00000-0 0  3570
2 40105  54.6064 168.4317 0018072 103.7055 216.6660  2.00572574    16
GPS BIIF-8  (PRN 03)    
1 40294C 14068A   20357.70201389 -.00000000  00000-0  00000-0 0  3574
2 40294  55.4483 109.4016 0030747  48.2462   2.8079  2.00562123    16
GPS BIIF-9  (PRN 26)    
1 40534C 15013A   20357.70201389  .00000000  00000-0  00000-0 0  3571
2 40534  54.0850 287.1079 0054474  10.9093 303.1981  2.00557315    14
GPS BIIF-10 (PRN 08)    
1 40730C 15033A   20357.70201389  .00000000  00000-0  00000-0 0  3571
2 40730  55.4968 348.4285 0059700 354.4677 200.1621  2.00553247    15
GPS BIIF-11 (PRN 10)    
1 41019C 15062A   20357.70201389 -.00000000  00000-0  00000-0 0  3575
2 41019  55.4434 109.2325 0064247 210.8583 311.2391  2.00564127    12
GPS BIIF-12 (PRN 32)    
1 41328C 16007A   20357.70201389 -.00000000  00000-0  00000-0 0  3578
2 41328  54.8378 168.9671 0044957 220.9198 233.9580  2.00570190    18
GPS BIII-1  (PRN 04)    
1 43873C 18109A   20357.70201389 -.00000000  00000-0  00000-0 0  3570
2 43873  55.0189 171.2724 0010402 196.7002 154.6212  2.00571917    15
GPS BIII-2  (PRN 18)    
1 44506C 19056A   20357.70201389 -.00000000  00000-0  00000-0 0  3576
2 44506  55.3660  50.6827 0011783 182.8018  66.7339  2.00561118    11
GPS BIII-3  (PRN 23)    
1 45854C 20041A   20357.70201389 -.00000000  00000-0  00000-0 0  3579
2 45854  55.1537 107.9347 0009313 138.8453  50.7900  2.00567967    17
GPS BIII-4  (PRN 14)    
1 46826C 20078A   20357.70201389  .00000000  00000-0  00000-0 0  3578
2 46826  54.9571 292.0365 0000615 214.9769 312.1868  2.00556323    12
